{
  "type": "FeatureCollection",
  "features": [
    {
      "type": "Feature",
      "properties": {
        "norad_id": 30750,
        "name": "FENGYUN 1C DEB",
        "group": "fengyun-1c-debris",
        "lat": 33.01481596429214,
        "lon": -104.71945846493857,
        "alt_km": 783.9357080528243,
        "timestamp": "2025-12-20T16:47:36.565143+00:00",
        "meta_object_name": "FENGYUN 1C DEB",
        "meta_object_id": "1999-025ATL",
        "meta_epoch": "2025-12-20T04:28:30.209664",
        "meta_mean_motion": 14.28662866,
        "meta_eccentricity": 0.00398968,
        "meta_inclination": 98.9195,
        "meta_ra_of_asc_node": 68.8991,
        "meta_arg_of_pericenter": 78.5669,
        "meta_mean_anomaly": 309.095,
        "meta_ephemeris_type": 0,
        "meta_classification_type": "U",
        "meta_norad_cat_id": 30750,
        "meta_element_set_no": 999,
        "meta_rev_at_epoch": 96888,
        "meta_bstar": 0.0011325578,
        "meta_mean_motion_dot": 2.825e-05,
        "meta_mean_motion_ddot": 0,
        "tle_line1": "1 30750U 99025ATL 25354.18646076  .00002825  00000+0  11326-2 0  9998",
        "tle_line2": "2 30750  98.9195  68.8991 0039896  78.5669 309.0950 14.28662866968889"
      },
      "geometry": {
        "type": "Point",
        "coordinates": [
          -104.71945846493857,
          33.01481596429214
        ]
      }
    },
    {
      "type": "Feature",
      "properties": {
        "norad_id": 30751,
        "name": "FENGYUN 1C DEB",
        "group": "fengyun-1c-debris",
        "lat": -34.66938762354896,
        "lon": -132.3453142849859,
        "alt_km": 876.6702262990702,
        "timestamp": "2025-12-20T16:47:36.565153+00:00",
        "meta_object_name": "FENGYUN 1C DEB",
        "meta_object_id": "1999-025ATM",
        "meta_epoch": "2025-12-19T02:35:44.656800",
        "meta_mean_motion": 14.15234958,
        "meta_eccentricity": 0.00517681,
        "meta_inclination": 98.8548,
        "meta_ra_of_asc_node": 52.2645,
        "meta_arg_of_pericenter": 78.491,
        "meta_mean_anomaly": 311.8722,
        "meta_ephemeris_type": 0,
        "meta_classification_type": "U",
        "meta_norad_cat_id": 30751,
        "meta_element_set_no": 999,
        "meta_rev_at_epoch": 96366,
        "meta_bstar": 0.0011823514,
        "meta_mean_motion_dot": 2.285e-05,
        "meta_mean_motion_ddot": 0,
        "tle_line1": "1 30751U 99025ATM 25353.10815575  .00002285  00000+0  11824-2 0  9995",
        "tle_line2": "2 30751  98.8548  52.2645 0051768  78.4910 311.8722 14.15234958963666"
      },
      "geometry": {
        "type": "Point",
        "coordinates": [
          -132.3453142849859,
          -34.66938762354896
        ]
      }
    },
    {
      "type": "Feature",
      "properties": {
        "norad_id": 30753,
        "name": "FENGYUN 1C DEB",
        "group": "fengyun-1c-debris",
        "lat": -56.901957415422686,
        "lon": 46.915547828266654,
        "alt_km": 822.6619700061256,
        "timestamp": "2025-12-20T16:47:36.565163+00:00",
        "meta_object_name": "FENGYUN 1C DEB",
        "meta_object_id": "1999-025ATP",
        "meta_epoch": "2025-12-20T06:51:55.767168",
        "meta_mean_motion": 14.12675099,
        "meta_eccentricity": 0.0055192,
        "meta_inclination": 98.8065,
        "meta_ra_of_asc_node": 32.7509,
        "meta_arg_of_pericenter": 333.2999,
        "meta_mean_anomaly": 26.5334,
        "meta_ephemeris_type": 0,
        "meta_classification_type": "U",
        "meta_norad_cat_id": 30753,
        "meta_element_set_no": 999,
        "meta_rev_at_epoch": 96458,
        "meta_bstar": 0.00083256,
        "meta_mean_motion_dot": 1.522e-05,
        "meta_mean_motion_ddot": 0,
        "tle_line1": "1 30753U 99025ATP 25354.28606212  .00001522  00000+0  83256-3 0  9995",
        "tle_line2": "2 30753  98.8065  32.7509 0055192 333.2999  26.5334 14.12675099964581"
      },
      "geometry": {
        "type": "Point",
        "coordinates": [
          46.915547828266654,
          -56.901957415422686
        ]
      }
    },
    {
      "type": "Feature",
      "properties": {
        "norad_id": 30755,
        "name": "FENGYUN 1C DEB",
        "group": "fengyun-1c-debris",
        "lat": -81.63707960771433,
        "lon": 87.9515875534491,
        "alt_km": 651.0115464330584,
        "timestamp": "2025-12-20T16:47:36.565174+00:00",
        "meta_object_name": "FENGYUN 1C DEB",
        "meta_object_id": "1999-025ATR",
        "meta_epoch": "2025-12-19T23:03:47.003616",
        "meta_mean_motion": 14.44983801,
        "meta_eccentricity": 0.01508302,
        "meta_inclination": 98.2582,
        "meta_ra_of_asc_node": 348.3279,
        "meta_arg_of_pericenter": 246.9728,
        "meta_mean_anomaly": 140.2536,
        "meta_ephemeris_type": 0,
        "meta_classification_type": "U",
        "meta_norad_cat_id": 30755,
        "meta_element_set_no": 999,
        "meta_rev_at_epoch": 98549,
        "meta_bstar": 0.00036855233,
        "meta_mean_motion_dot": 1.428e-05,
        "meta_mean_motion_ddot": 0,
        "tle_line1": "1 30755U 99025ATR 25353.96096069  .00001428  00000+0  36855-3 0  9992",
        "tle_line2": "2 30755  98.2582 348.3279 0150830 246.9728 140.2536 14.44983801985495"
      },
      "geometry": {
        "type": "Point",
        "coordinates": [
          87.9515875534491,
          -81.63707960771433
        ]
      }
    },
    {
      "type": "Feature",
      "properties": {
        "norad_id": 30756,
        "name": "FENGYUN 1C DEB",
        "group": "fengyun-1c-debris",
        "lat": -16.46838190287863,
        "lon": -120.472344466125,
        "alt_km": 841.3874928445357,
        "timestamp": "2025-12-20T16:47:36.565184+00:00",
        "meta_object_name": "FENGYUN 1C DEB",
        "meta_object_id": "1999-025ATS",
        "meta_epoch": "2025-12-19T04:36:36.409248",
        "meta_mean_motion": 14.18312364,
        "meta_eccentricity": 0.0071502,
        "meta_inclination": 98.991,
        "meta_ra_of_asc_node": 60.6832,
        "meta_arg_of_pericenter": 297.4614,
        "meta_mean_anomaly": 126.2927,
        "meta_ephemeris_type": 0,
        "meta_classification_type": "U",
        "meta_norad_cat_id": 30756,
        "meta_element_set_no": 999,
        "meta_rev_at_epoch": 96496,
        "meta_bstar": 0.0011061,
        "meta_mean_motion_dot": 2.291e-05,
        "meta_mean_motion_ddot": 0,
        "tle_line1": "1 30756U 99025ATS 25353.19208807  .00002291  00000+0  11061-2 0  9993",
        "tle_line2": "2 30756  98.9910  60.6832 0071502 297.4614 126.2927 14.18312364964968"
      },
      "geometry": {
        "type": "Point",
        "coordinates": [
          -120.472344466125,
          -16.46838190287863
        ]
      }
    },
    {
      "type": "Feature",
      "properties": {
        "norad_id": 30758,
        "name": "FENGYUN 1C DEB",
        "group": "fengyun-1c-debris",
        "lat": -16.45735952004507,
        "lon": -69.18245778279676,
        "alt_km": 862.0780834989664,
        "timestamp": "2025-12-20T16:47:36.565194+00:00",
        "meta_object_name": "FENGYUN 1C DEB",
        "meta_object_id": "1999-025ATU",
        "meta_epoch": "2025-12-18T01:25:53.327136",
        "meta_mean_motion": 14.17131159,
        "meta_eccentricity": 0.00384032,
        "meta_inclination": 99.0185,
        "meta_ra_of_asc_node": 110.8298,
        "meta_arg_of_pericenter": 347.6484,
        "meta_mean_anomaly": 67.7822,
        "meta_ephemeris_type": 0,
        "meta_classification_type": "U",
        "meta_norad_cat_id": 30758,
        "meta_element_set_no": 999,
        "meta_rev_at_epoch": 96566,
        "meta_bstar": 0.0008333481,
        "meta_mean_motion_dot": 1.645e-05,
        "meta_mean_motion_ddot": 0,
        "tle_line1": "1 30758U 99025ATU 25352.05964499  .00001645  00000+0  83335-3 0  9991",
        "tle_line2": "2 30758  99.0185 110.8298 0038403 347.6484  67.7822 14.17131159965667"
      },
      "geometry": {
        "type": "Point",
        "coordinates": [
          -69.18245778279676,
          -16.45735952004507
        ]
      }
    },
    {
      "type": "Feature",
      "properties": {
        "norad_id": 30759,
        "name": "FENGYUN 1C DEB",
        "group": "fengyun-1c-debris",
        "lat": -66.35301850366024,
        "lon": -98.57025414690312,
        "alt_km": 718.9675703862285,
        "timestamp": "2025-12-20T16:47:36.565224+00:00",
        "meta_object_name": "FENGYUN 1C DEB",
        "meta_object_id": "1999-025ATV",
        "meta_epoch": "2025-12-20T06:01:20.542080",
        "meta_mean_motion": 14.54649602,
        "meta_eccentricity": 0.0008762,
        "meta_inclination": 99.2584,
        "meta_ra_of_asc_node": 102.8051,
        "meta_arg_of_pericenter": 147.4313,
        "meta_mean_anomaly": 271.6783,
        "meta_ephemeris_type": 0,
        "meta_classification_type": "U",
        "meta_norad_cat_id": 30759,
        "meta_element_set_no": 999,
        "meta_rev_at_epoch": 97764,
        "meta_bstar": 0.0015584,
        "meta_mean_motion_dot": 6.615e-05,
        "meta_mean_motion_ddot": 0,
        "tle_line1": "1 30759U 99025ATV 25354.25093220  .00006615  00000+0  15584-2 0  9993",
        "tle_line2": "2 30759  99.2584 102.8051 0008762 147.4313 271.6783 14.54649602977644"
      },
      "geometry": {
        "type": "Point",
        "coordinates": [
          -98.57025414690312,
          -66.35301850366024
        ]
      }
    }
  ]
}